NORAD_CAT_ID,OBJECT_NAME,OBJECT_TYPE,EPOCH,MEAN_MOTION,ECCENTRICITY,INCLINATION,RA_OF_ASC_NODE,ARG_OF_PERICENTER,MEAN_ANOMALY,BSTAR,MEAN_MOTION_DOT,MEAN_MOTION_DDOT,TLE_LINE0,TLE_LINE1,TLE_LINE2,SEMIMAJOR_AXIS,PERIOD,APOGEE,PERIGEE,DECAYED
54168.0,STARLINK-5245,PAYLOAD,2023-06-21 01:32:47,15.08851671,9.31e-05,53.2165,140.2792,80.4375,279.6722,8.8689e-05,1.124e-05,0.0,0 STARLINK-5245,1 54168U 22141M   23172.06443596  .00001124  00000-0  88689-4 0  9997,2 54168  53.2165 140.2792 0000931  80.4375 279.6722 15.08851671 36009,6917.845,95.437,540.354,539.066,0.0
54168.0,STARLINK-5245,PAYLOAD,2023-06-21 07:54:19,15.08857686,9.98e-05,53.2158,139.0892,82.8235,277.2871,0.00014998,2.101e-05,0.0,0 STARLINK-5245,1 54168U 22141M   23172.32939042  .00002101  00000-0  14998-3 0  9999,2 54168  53.2158 139.0892 0000998  82.8235 277.2871 15.08857686 36047,6917.826,95.436,540.382,539.001,0.0
54168.0,STARLINK-5245,PAYLOAD,2023-06-21 14:15:52,15.0884041,7.38e-05,53.2158,137.9007,90.9717,269.136,-1.621e-05,-5.46e-06,0.0,0 STARLINK-5245,1 54168U 22141M   23172.59436129 -.00000546  00000-0 -16210-4 0  9999,2 54168  53.2158 137.9007 0000738  90.9717 269.1360 15.08840410 36083,6917.879,95.438,540.255,539.234,0.0
54168.0,STARLINK-5245,PAYLOAD,2023-06-23 01:14:21,15.08843107,0.0001082,53.2151,131.3595,98.9566,261.1549,3.2418e-05,2.28e-06,0.0,0 STARLINK-5245,1 54168U 22141M   23174.05164161  .00000228  00000-0  32418-4 0  9999,2 54168  53.2151 131.3595 0001082  98.9566 261.1549 15.08843107 36301,6917.871,95.437,540.484,538.987,0.0
54168.0,STARLINK-5245,PAYLOAD,2023-06-24 01:05:09,15.08834841,0.0001058,53.215,126.8992,101.7326,258.3785,4.5399e-05,4.35e-06,0.0,0 STARLINK-5245,1 54168U 22141M   23175.04524699  .00000435  00000-0  45399-4 0  9997,2 54168  53.2150 126.8992 0001058 101.7326 258.3785 15.08834841 36451,6917.896,95.438,540.493,539.029,0.0
54168.0,STARLINK-5245,PAYLOAD,2023-06-25 02:31:19,15.08840839,0.0001139,53.2154,122.1402,88.1653,271.9469,0.00014703,2.053e-05,0.0,0 STARLINK-5245,1 54168U 22141M   23176.10508776  .00002053  00000-0  14703-3 0  9995,2 54168  53.2154 122.1402 0001139  88.1653 271.9469 15.08840839 36613,6917.878,95.438,540.531,538.955,0.0
54168.0,STARLINK-5245,PAYLOAD,2023-06-26 05:32:52,15.08849839,0.000126,53.2151,117.0839,97.0389,263.0746,0.00025572,3.785e-05,0.0,0 STARLINK-5245,1 54168U 22141M   23177.23116350  .00003785  00000-0  25572-3 0  9992,2 54168  53.2151 117.0839 0001260  97.0389 263.0746 15.08849839 36784,6917.85,95.437,540.587,538.844,0.0
54168.0,STARLINK-5245,PAYLOAD,2023-06-26 13:29:48,15.08833742,0.0001397,53.2151,115.5983,88.561,271.5543,-3.3646e-05,-8.23e-06,0.0,0 STARLINK-5245,1 54168U 22141M   23177.56237120 -.00000823  00000-0 -33646-4 0  9991,2 54168  53.2151 115.5983 0001397  88.5610 271.5543 15.08833742 36831,6917.9,95.438,540.731,538.798,0.0
54168.0,STARLINK-5245,PAYLOAD,2023-06-27 05:23:40,15.08839991,0.0001164,53.2153,112.6239,95.0367,265.0758,6.2134e-05,7.01e-06,0.0,0 STARLINK-5245,1 54168U 22141M   23178.22477025  .00000701  00000-0  62134-4 0  9992,2 54168  53.2153 112.6239 0001164  95.0367 265.0758 15.08839991 36938,6917.88,95.438,540.551,538.94,0.0
54168.0,STARLINK-5245,PAYLOAD,2023-06-29 01:54:28,15.08841926,0.0001046,53.216,104.2966,96.8703,263.2408,0.00015274,2.144e-05,0.0,0 STARLINK-5245,1 54168U 22141M   23180.07949295  .00002144  00000-0  15274-3 0  9996,2 54168  53.2160 104.2966 0001046  96.8703 263.2408 15.08841926 37217,6917.875,95.437,540.463,539.016,0.0
54168.0,STARLINK-5245,PAYLOAD,2023-06-30 11:17:34,15.08839816,0.0001014,53.2167,98.0552,90.4653,269.6455,3.3184e-05,2.4e-06,0.0,0 STARLINK-5245,1 54168U 22141M   23181.47053564  .00000240  00000-0  33184-4 0  9992,2 54168  53.2167  98.0552 0001014  90.4653 269.6455 15.08839816 37424,6917.881,95.438,540.447,539.044,0.0
54168.0,STARLINK-5245,PAYLOAD,2023-07-02 01:26:49,15.08837895,0.0001251,53.2176,90.9177,100.9637,259.1496,2.4198e-05,9.7e-07,0.0,0 STARLINK-5245,1 54168U 22141M   23183.06030083  .00000097  00000-0  24198-4 0  9995,2 54168  53.2176  90.9177 0001251 100.9637 259.1496 15.08837895 37660,6917.887,95.438,540.617,538.886,0.0
54168.0,STARLINK-5245,PAYLOAD,2023-07-03 01:17:36,15.0884613,0.0001161,53.2173,86.4563,96.4652,263.6472,0.00014031,1.946e-05,0.0,0 STARLINK-5245,1 54168U 22141M   23184.05389477  .00001946  00000-0  14031-3 0  9997,2 54168  53.2173  86.4563 0001161  96.4652 263.6472 15.08846130 37815,6917.862,95.437,540.53,538.923,0.0
54168.0,STARLINK-5245,PAYLOAD,2023-07-03 10:49:55,15.08839433,0.000109,53.217,84.6718,99.4988,260.6127,5.7416e-05,6.26e-06,0.0,0 STARLINK-5245,1 54168U 22141M   23184.45134070  .00000626  00000-0  57416-4 0  9997,2 54168  53.2170  84.6718 0001090  99.4988 260.6127 15.08839433 37878,6917.882,95.438,540.501,538.993,0.0
54168.0,STARLINK-5245,PAYLOAD,2023-07-04 23:23:47,15.08852564,0.000113,53.2173,77.831,97.0709,263.0411,6.7197e-05,7.82e-06,0.0,0 STARLINK-5245,1 54168U 22141M   23185.97485098  .00000782  00000-0  67197-4 0  9994,2 54168  53.2173  77.8310 0001130  97.0709 263.0411 15.08852564 38103,6917.842,95.437,540.489,538.925,0.0
54168.0,STARLINK-5245,PAYLOAD,2023-07-06 02:25:22,15.08828593,9.6e-05,53.2173,72.7777,99.8535,260.2565,-5.343e-05,-1.138e-05,0.0,0 STARLINK-5245,1 54168U 22141M   23187.10095311 -.00001138  00000-0 -53430-4 0  9999,2 54168  53.2173  72.7777 0000960  99.8535 260.2565 15.08828593 38273,6917.915,95.438,540.444,539.116,0.0
54168.0,STARLINK-5245,PAYLOAD,2023-07-07 02:16:08,15.08850408,8.41e-05,53.2171,68.3172,93.1602,266.9487,4.848e-05,4.84e-06,0.0,0 STARLINK-5245,1 54168U 22141M   23188.09453931  .00000484  00000-0  48480-4 0  9994,2 54168  53.2171  68.3172 0000841  93.1602 266.9487 15.08850408 38424,6917.849,95.437,540.295,539.132,0.0
54168.0,STARLINK-5245,PAYLOAD,2023-07-07 16:34:37,15.08836903,7.34e-05,53.2171,65.6409,99.29,260.8175,0.00021996,3.214e-05,0.0,0 STARLINK-5245,1 54168U 22141M   23188.69070619  .00003214  00000-0  21996-3 0  9994,2 54168  53.2171  65.6409 0000734  99.2900 260.8175 15.08836903 38517,6917.89,95.438,540.263,539.247,0.0
54168.0,STARLINK-5245,PAYLOAD,2023-07-08 18:00:47,15.08838586,9.78e-05,53.2168,60.8833,87.6794,272.431,-1.7103e-05,-5.6e-06,0.0,0 STARLINK-5245,1 54168U 22141M   23189.75054758 -.00000560  00000-0 -17103-4 0  9997,2 54168  53.2168  60.8833 0000978  87.6794 272.4310 15.08838586 38679,6917.885,95.438,540.426,539.073,0.0
54168.0,STARLINK-5245,PAYLOAD,2023-07-09 22:37:43,15.08845258,9.49e-05,53.2183,55.5325,95.5904,264.5197,5.5681e-05,5.99e-06,0.0,0 STARLINK-5245,1 54168U 22141M   23190.94286643  .00000599  00000-0  55681-4 0  9993,2 54168  53.2183  55.5325 0000949  95.5904 264.5197 15.08845258 38851,6917.864,95.437,540.386,539.073,0.0
54168.0,STARLINK-5245,PAYLOAD,2023-07-11 00:03:53,15.08845513,9.25e-05,53.2174,50.7722,90.7346,269.3752,0.0001219,1.653e-05,0.0,0 STARLINK-5245,1 54168U 22141M   23192.00270490  .00001653  00000-0  12190-3 0  9994,2 54168  53.2174  50.7722 0000925  90.7346 269.3752 15.08845513 39013,6917.864,95.437,540.368,539.089,0.0
54168.0,STARLINK-5245,PAYLOAD,2023-07-12 07:51:36,15.08845112,0.0001084,53.2176,44.8245,94.1454,265.9662,0.00011707,1.576e-05,0.0,0 STARLINK-5245,1 54168U 22141M   23193.32750420  .00001576  00000-0  11707-3 0  9993,2 54168  53.2176  44.8245 0001084  94.1454 265.9662 15.08845112 39213,6917.865,95.437,540.48,538.98,0.0
54168.0,STARLINK-5245,PAYLOAD,2023-07-13 17:14:43,15.0883433,0.0001121,53.218,38.5805,118.5105,241.6,-8.5235e-05,-1.644e-05,0.0,0 STARLINK-5245,1 54168U 22141M   23194.71855675 -.00001644  00000-0 -85235-4 0  9991,2 54168  53.2180  38.5805 0001121 118.5105 241.6000 15.08834330 39426,6917.898,95.438,540.538,538.987,0.0
54168.0,STARLINK-5245,PAYLOAD,2023-07-13 20:25:30,15.08814976,8.48e-05,53.2177,37.9857,83.9957,276.1132,-0.0001668,-2.939e-05,0.0,0 STARLINK-5245,1 54168U 22141M   23194.85105205 -.00002939  00000-0 -16680-3 0  9998,2 54168  53.2177  37.9857 0000848  83.9957 276.1132 15.08814976 39442,6917.957,95.439,540.409,539.235,0.0
54168.0,STARLINK-5245,PAYLOAD,2023-07-14 05:57:49,15.08825465,7.84e-05,53.2182,36.2032,73.3487,286.7591,-0.00015004,-2.674e-05,0.0,0 STARLINK-5245,1 54168U 22141M   23195.24848980 -.00002674  00000-0 -15004-3 0  9991,2 54168  53.2182  36.2032 0000784  73.3487 286.7591 15.08825465 39503,6917.925,95.438,540.332,539.247,0.0
54168.0,STARLINK-5245,PAYLOAD,2023-07-14 17:05:30,15.08836251,9.27e-05,53.2181,34.1206,85.8035,274.3063,9.5621e-05,1.234e-05,0.0,0 STARLINK-5245,1 54168U 22141M   23195.71216113  .00001234  00000-0  95621-4 0  9993,2 54168  53.2181  34.1206 0000927  85.8035 274.3063 15.08836251 39577,6917.892,95.438,540.398,539.116,0.0
54168.0,STARLINK-5245,PAYLOAD,2023-07-14 23:27:02,15.0884616,7.56e-05,53.2174,32.9303,67.0866,293.0206,0.00017316,2.47e-05,0.0,0 STARLINK-5245,1 54168U 22141M   23195.97711466  .00002470  00000-0  17316-3 0  9999,2 54168  53.2174  32.9303 0000756  67.0866 293.0206 15.08846160 39619,6917.862,95.437,540.25,539.204,0.0
54168.0,STARLINK-5245,PAYLOAD,2023-07-15 05:48:35,15.08844668,5.82e-05,53.2167,31.7409,91.5528,268.5531,0.00027348,4.068e-05,0.0,0 STARLINK-5245,1 54168U 22141M   23196.24208000  .00004068  00000-0  27348-3 0  9996,2 54168  53.2167  31.7409 0000582  91.5528 268.5531 15.08844668 39652,6917.866,95.437,540.134,539.329,0.0
54168.0,STARLINK-5245,PAYLOAD,2023-07-15 20:07:03,15.08870712,7.37e-05,53.2167,29.0653,52.4733,307.6326,0.00080033,0.00012483,0.0,0 STARLINK-5245,1 54168U 22141M   23196.83823566  .00012483  00000-0  80033-3 0  9991,2 54168  53.2167  29.0653 0000737  52.4733 307.6326 15.08870712 39745,6917.787,95.436,540.161,539.142,0.0
54168.0,STARLINK-5245,PAYLOAD,2023-07-16 05:39:22,15.08855947,6.82e-05,53.2166,27.2811,66.8131,293.2933,1.5803e-05,-3.6e-07,0.0,0 STARLINK-5245,1 54168U 22141M   23197.23567300 -.00000036  00000-0  15803-4 0  9993,2 54168  53.2166  27.2811 0000682  66.8131 293.2933 15.08855947 39804,6917.832,95.437,540.168,539.225,0.0
